{"fetched_at":"2026-05-05T17:23:47Z","count":4905,"tles":[{"name":"2023-085Q","line1":"1 57018U 23085Q   23362.12978689  .00012649  00000+0  72484-3 0  9994","line2":"2 57018  97.4637 104.0955 0011072 330.9171  29.1442 15.12681691 29573","category":"Other"},{"name":"STARLINK-36996","line1":"1 68064U 26041AA  26125.07293258  .00039931  00000+0  10286-2 0  9992","line2":"2 68064  53.1588 147.0670 0001235  68.2042 291.9094 15.38849668 10030","category":"Starlink"},{"name":"FENGYUN 1C DEB","line1":"1 30512U 99025AJA 23179.36131255  .00071615  00000+0  19362-2 0  9996","line2":"2 30512  98.7668 143.9608 0062622 294.0671  65.4024 15.35456534888281","category":"Weather"},{"name":"HULIANWANG DIGUI-75","line1":"1 65307U 25187C   26124.80048480 -.00000088  00000+0  77935-4 0  9992","line2":"2 65307  50.0107   1.2590 0000726  18.1177 341.9721 13.29321158 33933","category":"Other"},{"name":"FENGYUN 1C DEB","line1":"1 31882U 99025CKH 26100.52623682  .00000934  00000+0  51926-3 0  9991","line2":"2 31882  98.9215  27.6283 0034650 248.9691 110.7773 14.13296218603140","category":"Weather"},{"name":"ONEWEB-0205","line1":"1 48226U 21031S   26124.97896434 -.00000161  00000+0 -46899-3 0  9992","line2":"2 48226  87.8931 298.3158 0001584  97.4577 262.6733 13.14504316242592","category":"Other"},{"name":"STARLINK-30415","line1":"1 57821U 23138P   26124.80125133 -.00000971  00000+0 -25767-4 0  9997","line2":"2 57821  43.0023 277.8236 0001354 259.0651 101.0048 15.27565844147310","category":"Starlink"},{"name":"STARLINK-33630","line1":"1 63477U 25070T   26124.50358725  .00008011  00000+0  30026-3 0  9994","line2":"2 63477  42.9998 301.0095 0001227 268.5698  91.5013 15.27588583 61552","category":"Starlink"},{"name":"STARLINK-6330","line1":"1 76330C 23094X   23189.75256944  .00519746  00000-0  74732-3 0  1891","line2":"2 76330  42.9964 313.6197 0077097 152.4097 328.6674 15.98149576    15","category":"Starlink"},{"name":"STARLINK-4783","line1":"1 53835U 22114T   26124.19395617  .00001202  00000+0  93643-4 0  9993","line2":"2 53835  53.2187  54.7429 0001473  83.2627 276.8533 15.08834040201219","category":"Starlink"},{"name":"STARLINK-35806","line1":"1 66363U 25254R   26125.00789833  .00010497  00000+0  36603-3 0  9997","line2":"2 66363  53.1592 331.1860 0001287  92.4312 267.6836 15.30201144 27594","category":"Starlink"},{"name":"FENGYUN 1C DEB","line1":"1 35105U 99025DKH 26104.24572468  .00000788  00000+0  21966-3 0  9999","line2":"2 35105  98.9568  96.9674 0112147  49.1769 311.9080 14.45753052962638","category":"Weather"},{"name":"FLOCK 4X-32","line1":"1 51024U 22002AS  23362.15573285  .00022979  00000+0  67371-3 0  9995","line2":"2 51024  97.4201  71.2412 0006458 257.2671 102.7851 15.35177193108529","category":"Other"},{"name":"LEMUR-2-NIMBUS2000","line1":"1 58899U 24022A   26124.52326992  .00016193  00000+0  42573-3 0  9995","line2":"2 58899  97.4150 334.0140 0007402 274.4252  85.6147 15.38641134125556","category":"Weather"},{"name":"ONEWEB-0035","line1":"1 45143U 20008N   26124.78549755 -.00000025  00000+0 -10839-3 0  9994","line2":"2 45143  87.8849  44.9114 0001802  74.9578 285.1749 13.10882340302255","category":"Other"},{"name":"STARLINK-30061","line1":"1 55698C 23026D   23181.03729167  .00000000  00000-0  00000-0 0  1819","line2":"2 55698  42.9831 259.5346 0051007  23.0553 321.6855 16.75254189    16","category":"Starlink"},{"name":"STARLINK-32288","line1":"1 60943U 24155V   26124.57357271 -.00000775  00000+0 -14049-4 0  9993","line2":"2 60943  53.1589 230.3237 0001030  74.8994 285.2120 15.30189382 94845","category":"Starlink"},{"name":"KZ-11 R/B","line1":"1 67071U 25296C   25358.32930095  .10609436  77667-5  38975-3 0  9991","line2":"2 67071  41.3001  37.0775 0331507  35.4688 326.7718 15.73894626  1695","category":"Other"},{"name":"DELTA 4 R/B","line1":"1 38529U 12034B   26104.31861310 -.00000219  00000+0  00000+0 0  9994","line2":"2 38529   6.8211  60.3665 0193229 178.7259 181.3717  1.03151691 25987","category":"Other"},{"name":"STARLINK-4177","line1":"1 53013U 22076AD  26125.19676786 -.00001036  00000+0 -46985-4 0  9992","line2":"2 53013  53.2181 190.4486 0001347  96.1824 263.9322 15.08838411211517","category":"Starlink"},{"name":"STARLINK-34167","line1":"1 64228U 25117AB  26124.52948448  .00026765  00000+0  80052-3 0  9990","line2":"2 64228  53.1594 139.6191 0000892  83.1264 276.9840 15.34397497 53112","category":"Starlink"},{"name":"STARLINK-2098","line1":"1 47378U 21005AF  26124.36517163  .00000236  00000+0  19373-4 0  9991","line2":"2 47378  53.1589 115.3164 0001261  91.4868 268.6278 15.31689205292247","category":"Starlink"},{"name":"STARLINK-6248","line1":"1 57082U 23088AL  26125.04911762  .00000537  00000+0  29064-4 0  9998","line2":"2 57082  43.0033 137.5049 0001878 272.3243  87.7393 15.27574389159129","category":"Starlink"},{"name":"STARLINK-32291","line1":"1 62442U 24251L   26124.82801888  .00018624  00000+0  63914-3 0  9996","line2":"2 62442  53.1586  74.5307 0001322  99.8546 260.2604 15.30210615 76235","category":"Starlink"},{"name":"FIREFLY ALPHA R/B","line1":"1 68128U 26046B   26101.44210219  .00030552  00000+0  39636-3 0  9990","line2":"2 68128 123.0914 349.5186 0018215  42.3965 317.8500 15.58451804  4749","category":"Other"},{"name":"FENGYUN 1C DEB","line1":"1 30602U 99025AMH 26104.83565584  .00253746  00000+0  67192-2 0  9996","line2":"2 30602  99.0112  44.9876 0019944 121.7644 304.4947 15.37147133996601","category":"Weather"},{"name":"STARLINK-34869","line1":"1 65371U 25190W   26124.71742736  .00014141  00000+0  48871-3 0  9992","line2":"2 65371  53.1628 267.9049 0001231  87.2912 272.8230 15.30196854 38335","category":"Starlink"},{"name":"FENGYUN 1C DEB","line1":"1 31992U 99025CPV 26102.61277703  .00000674  00000+0  76603-3 0  9994","line2":"2 31992  99.1798  53.4594 0541579  96.6643 269.6393 13.23191741554738","category":"Weather"},{"name":"STARLINK-2528","line1":"1 48307U 21036AH  23362.50402970  .00001160  00000+0  96827-4 0  9990","line2":"2 48307  53.0551  92.7620 0003089 156.9498 203.1630 15.06392088147853","category":"Starlink"},{"name":"YAOGAN-39 02B","line1":"1 57889U 23145D   26124.47084903  .00004246  00000+0  20915-3 0  9997","line2":"2 57889  34.9890 136.8875 0003021   6.3898 353.6853 15.17405861146248","category":"Other"},{"name":"STARLINK-32928","line1":"1 63564U 25075S   26124.55299606  .00014593  00000+0  53848-3 0  9992","line2":"2 63564  42.9961 314.9178 0000694 325.1673  34.9133 15.27597130 60487","category":"Starlink"},{"name":"UNKNOWN","line1":"1 81569U          23357.37203737  .00000219  00000+0  88370-3 0  9991","line2":"2 81569  28.0758   3.0200 0317818 109.2195 254.2983 12.46320802462880","category":"Other"},{"name":"PINA 2B","line1":"1 41844U 16066D   23312.15363435  .10828689  25510-5  78694-3 0  9998","line2":"2 41844  97.3344 338.8287 0008062 249.3396 110.7040 16.40667567390265","category":"Other"},{"name":"STARLINK-4796","line1":"1 53909U 22119Z   26125.07627939  .00000176  00000+0  29136-4 0  9998","line2":"2 53909  53.2179  61.2520 0001422  88.3984 271.7171 15.08838900200336","category":"Starlink"},{"name":"STARLINK-35611","line1":"1 66427U 25259F   26124.86927081  .00032095  00000+0  11704-2 0  9997","line2":"2 66427  43.0013 317.0392 0001555 271.3805  88.6869 15.27590704 28088","category":"Starlink"},{"name":"FENGYUN 1C DEB","line1":"1 35229U 99025DQM 26103.49592037  .00012202  00000+0  21191-2 0  9999","line2":"2 35229  98.4445 190.6945 0042386 193.6060 166.4005 14.67739633662880","category":"Weather"},{"name":"STARLINK-3368","line1":"1 51107U 22005D   23362.12606352  .00010596  00000+0  68259-3 0  9997","line2":"2 51107  53.2178 301.9565 0001597 103.1689 256.9481 15.08853498108691","category":"Starlink"},{"name":"IM-1","line1":"1 58963U 24030A   24046.86640046 -.00014929  00000+0  00000+0 0  9994","line2":"2 58963  28.6500  67.7900 9686440 239.7630  18.8830  0.08992573    90","category":"Other"},{"name":"OPS 7329","line1":"1 04510U 70069A   26104.57199610 -.00000162  00000+0  00000+0 0  9991","line2":"2 04510  10.5680 159.1408 1011521 107.0196  57.3873  1.00164326 24153","category":"Other"},{"name":"STARLINK-1226","line1":"1 45229U 20012BD  26125.08829898  .00085253  00000+0  20501-2 0  9997","line2":"2 45229  53.1574  94.2033 0003424  78.8431 281.2959 15.40599393344087","category":"Starlink"},{"name":"STARLINK-5815","line1":"1 55789U 23028BA  26125.07710681 -.00000059  00000+0  28203-5 0  9999","line2":"2 55789  70.0011  62.2369 0002828 268.2642  91.8194 14.98327004175477","category":"Starlink"},{"name":"STARLINK-32360","line1":"1 61007U 24158T   26124.48320416  .00000499  00000+0  28982-4 0  9991","line2":"2 61007  53.1613 151.0684 0001281  78.6873 281.4271 15.30191859 94337","category":"Starlink"},{"name":"KUIPER-00175","line1":"1 67135U 25301C   26124.43204109  .00003231  00000+0  33783-3 0  9996","line2":"2 67135  51.8938 169.4379 0000486  53.7179 306.3833 14.92181849 22194","category":"Other"},{"name":"FENGYUN 1C DEB","line1":"1 38811U 99025EVB 23178.07028782  .00007025  00000+0  29548-2 0  9994","line2":"2 38811  99.0154 271.7996 0047072 219.4420 140.3328 14.25508910653835","category":"Weather"},{"name":"STARLINK-4321","line1":"1 53082U 22077AR  26125.08708956 -.00003564  00000+0 -24309-3 0  9995","line2":"2 53082  97.5397 305.5508 0000571 212.3620 147.7572 15.05634099209393","category":"Starlink"},{"name":"TITAN 4 CENTAUR R/B","line1":"1 26716U 01009B   26104.54363043 -.00000173  00000+0  00000+0 0  9993","line2":"2 26716  12.5800  12.7705 0013519 142.8711 217.1913  1.00461892 25614","category":"Other"},{"name":"STARLINK-34428","line1":"1 64293U 25123C   26124.84958329  .00000762  00000+0  71633-4 0  9998","line2":"2 64293  70.0019  52.7458 0002885 267.8924  92.1904 14.98330426 51253","category":"Starlink"},{"name":"P2-10","line1":"1 47483U 21006BY  23362.14099663  .00321945  00000+0  21380-2 0  9998","line2":"2 47483  97.3471  65.2080 0001510  51.9213 308.2188 15.74538362162786","category":"Other"}]}